NORAD_CAT_ID,OBJECT_NAME,OBJECT_TYPE,EPOCH,MEAN_MOTION,ECCENTRICITY,INCLINATION,RA_OF_ASC_NODE,ARG_OF_PERICENTER,MEAN_ANOMALY,BSTAR,MEAN_MOTION_DOT,MEAN_MOTION_DDOT,TLE_LINE0,TLE_LINE1,TLE_LINE2,SEMIMAJOR_AXIS,PERIOD,APOGEE,PERIGEE,DECAYED
52112.0,STARLINK-3734,PAYLOAD,2022-06-21 22:00:00,15.08855054,0.0001784,53.2134,49.9098,45.0726,80.8937,-0.0022893,-0.00036553,0.0,0 STARLINK-3734,1 52112U 22029AA  22172.91667824 -.00036553  00000-0 -22893-2 0  9993,2 52112  53.2134  49.9098 0001784  45.0726  80.8937 15.08855054 15950,6917.834,95.437,540.934,538.465,0.0
52112.0,STARLINK-3734,PAYLOAD,2022-06-22 14:00:01,15.08814592,0.0001694,53.2132,46.9152,52.7908,96.3635,0.0027283,0.0004337,0.0,0 STARLINK-3734,1 52112U 22029AA  22173.58334491  .00043370  00000-0  27283-2 0  9999,2 52112  53.2132  46.9152 0001694  52.7908  96.3635 15.08814592 16054,6917.958000000001,95.439,540.995,538.651,0.0
52112.0,STARLINK-3734,PAYLOAD,2022-06-22 22:00:00,15.08839973,0.0001852,53.2131,45.4206,48.5944,112.1421,-0.00038199,-6.362e-05,0.0,0 STARLINK-3734,1 52112U 22029AA  22173.91667824 -.00006362  00000-0 -38199-3 0  9996,2 52112  53.2131  45.4206 0001852  48.5944 112.1421 15.08839973  1308,6917.88,95.438,541.0269999999998,538.464,0.0
52112.0,STARLINK-3734,PAYLOAD,2022-06-23 06:00:00,15.08866417,0.0001798,53.2127,43.9237,46.5358,125.7928,-0.003971,-0.00062981,0.0,0 STARLINK-3734,1 52112U 22029AA  22174.25001157 -.00062981  00000-0 -39710-2 0  9993,2 52112  53.2127  43.9237 0001798  46.5358 125.7928 15.08866417 16150,6917.8,95.436,540.908,538.4209999999998,0.0
52112.0,STARLINK-3734,PAYLOAD,2022-06-23 14:00:01,15.08814305,0.0001645,53.2129,42.426,52.2084,131.7217,0.0024093,0.00038238,0.0,0 STARLINK-3734,1 52112U 22029AA  22174.58334491  .00038238  00000-0  24093-2 0  9993,2 52112  53.2129  42.4260 0001645  52.2084 131.7217 15.08814305  1301,6917.959,95.439,540.962,538.686,0.0
52112.0,STARLINK-3734,PAYLOAD,2022-06-23 22:00:00,15.08830562,0.0001821,53.2129,40.9314,47.2232,148.2765,2.1897e-05,6e-07,0.0,0 STARLINK-3734,1 52112U 22029AA  22174.91667824  .00000060  00000-0  21897-4 0  9992,2 52112  53.2129  40.9314 0001821  47.2232 148.2765 15.08830562 16253,6917.909000000002,95.438,541.034,538.514,0.0
52112.0,STARLINK-3734,PAYLOAD,2022-06-24 14:00:01,15.08846126,0.0001759,53.2129,37.9367,54.2129,164.4636,-0.00055781,-9.156e-05,0.0,0 STARLINK-3734,1 52112U 22029AA  22175.58334491 -.00009156  00000-0 -55781-3 0  9992,2 52112  53.2129  37.9367 0001759  54.2129 164.4636 15.08846126  1300,6917.861999999999,95.437,540.944,538.51,0.0
52112.0,STARLINK-3734,PAYLOAD,2022-06-24 22:00:01,15.08818658,0.000201,53.2129,36.442,50.3581,179.9839,0.00027772,4.132e-05,0.0,0 STARLINK-3734,1 52112U 22029AA  22175.91668981  .00004132  00000-0  27772-3 0  9999,2 52112  53.2129  36.4420 0002010  50.3581 179.9839 15.08818658 16406,6917.946,95.439,541.201,538.42,0.0
52112.0,STARLINK-3734,PAYLOAD,2022-06-25 14:00:01,15.08827943,0.0001902,53.2132,33.4472,56.179,197.2554,0.0020238,0.00032057,0.0,0 STARLINK-3734,1 52112U 22029AA  22176.58334491  .00032057  00000-0  20238-2 0  9995,2 52112  53.2132  33.4472 0001902  56.1790 197.2554 15.08827943  1306,6917.917,95.438,541.0980000000002,538.466,0.0
52112.0,STARLINK-3734,PAYLOAD,2022-06-25 20:00:01,15.08850567,0.0002036,53.2131,32.3264,52.1226,120.0073,-0.00081905,-0.00013304,0.0,0 STARLINK-3734,1 52112U 22029AA  22176.83334491 -.00013304  00000-0 -81905-3 0  9998,2 52112  53.2131  32.3264 0002036  52.1226 120.0073 15.08850567 16541,6917.848000000001,95.437,541.122,538.305,0.0
52112.0,STARLINK-3734,PAYLOAD,2022-06-25 22:00:00,15.08839231,0.0002094,53.2132,31.9526,50.9267,214.1068,0.00078482,0.00012224,0.0,0 STARLINK-3734,1 52112U 22029AA  22176.91667824  .00012224  00000-0  78482-3 0  9990,2 52112  53.2132  31.9526 0002094  50.9267 214.1068 15.08839231  1305,6917.8830000000025,95.438,541.196,538.299,0.0
52112.0,STARLINK-3734,PAYLOAD,2022-06-26 14:00:01,15.08853051,0.0001872,53.2135,28.9576,55.3735,232.9469,0.00014062,1.951e-05,0.0,0 STARLINK-3734,1 52112U 22029AA  22177.58335648  .00001951  00000-0  14062-3 0  9999,2 52112  53.2135  28.9576 0001872  55.3735 232.9469 15.08853051 16654,6917.84,95.437,541.001,538.41,0.0
52112.0,STARLINK-3734,PAYLOAD,2022-06-26 20:00:01,15.08848624,0.0001993,53.2134,27.8369,50.2686,156.6559,-0.00055393,-9.095e-05,0.0,0 STARLINK-3734,1 52112U 22029AA  22177.83334491 -.00009095  00000-0 -55393-3 0  9993,2 52112  53.2134  27.8369 0001993  50.2686 156.6559 15.08848624 16690,6917.854,95.437,541.0980000000002,538.34,0.0
52112.0,STARLINK-3734,PAYLOAD,2022-06-26 22:00:00,15.08841463,0.0002035,53.2135,27.4631,49.2116,250.6154,0.00047852,7.336e-05,0.0,0 STARLINK-3734,1 52112U 22029AA  22177.91667824  .00007336  00000-0  47852-3 0  9996,2 52112  53.2135  27.4631 0002035  49.2116 250.6154 15.08841463  1305,6917.876,95.437,541.149,538.3330000000002,0.0
52112.0,STARLINK-3734,PAYLOAD,2022-06-27 14:00:01,15.08830668,0.0001796,53.2138,24.4682,54.1687,268.8503,0.0014863,0.0002344,0.0,0 STARLINK-3734,1 52112U 22029AA  22178.58334491  .00023440  00000-0  14863-2 0  9990,2 52112  53.2138  24.4682 0001796  54.1687 268.8503 15.08830668  1306,6917.909000000002,95.438,541.016,538.531,0.0
52112.0,STARLINK-3734,PAYLOAD,2022-06-27 22:00:00,15.08834647,0.0001961,53.2137,22.9736,48.0958,286.5182,0.0004759,7.293e-05,0.0,0 STARLINK-3734,1 52112U 22029AA  22178.91667824  .00007293  00000-0  47590-3 0  9998,2 52112  53.2137  22.9736 0001961  48.0958 286.5182 15.08834647 16852,6917.897,95.438,541.118,538.405,0.0
52112.0,STARLINK-3734,PAYLOAD,2022-06-28 14:00:01,15.08821727,0.0001698,53.2138,19.9788,53.5,304.2794,0.00081066,0.00012631,0.0,0 STARLINK-3734,1 52112U 22029AA  22179.58334491  .00012631  00000-0  81066-3 0  9991,2 52112  53.2138  19.9788 0001698  53.5000 304.2794 15.08821727 16955,6917.936,95.439,540.976,538.627,0.0
52112.0,STARLINK-3734,PAYLOAD,2022-06-28 22:00:00,15.08813495,0.0001882,53.2135,18.4841,47.8688,321.4918,0.0012365,0.00019432,0.0,0 STARLINK-3734,1 52112U 22029AA  22179.91667824  .00019432  00000-0  12365-2 0  9998,2 52112  53.2135  18.4841 0001882  47.8688 321.4918 15.08813495  1304,6917.9609999999975,95.439,541.128,538.524,0.0
52112.0,STARLINK-3734,PAYLOAD,2022-06-29 14:00:01,15.08837396,0.0001695,53.2134,15.4895,55.3193,337.1907,0.0002085,3.032e-05,0.0,0 STARLINK-3734,1 52112U 22029AA  22180.58334491  .00003032  00000-0  20850-3 0  9992,2 52112  53.2134  15.4895 0001695  55.3193 337.1907 15.08837396 17110,6917.888000000001,95.438,540.9259999999998,538.581,0.0
52112.0,STARLINK-3734,PAYLOAD,2022-06-29 22:00:00,15.08821481,0.0001866,53.2132,13.9946,49.7036,354.4037,0.0015745,0.00024846,0.0,0 STARLINK-3734,1 52112U 22029AA  22180.91667824  .00024846  00000-0  15745-2 0  9990,2 52112  53.2132  13.9946 0001866  49.7036 354.4037 15.08821481  1309,6917.937,95.439,541.0930000000002,538.511,0.0
52112.0,STARLINK-3734,PAYLOAD,2022-06-30 14:00:01,15.08851044,0.0001726,53.213,11.0,57.1735,10.1073,-0.00029826,-5.033e-05,0.0,0 STARLINK-3734,1 52112U 22029AA  22181.58334491 -.00005033  00000-0 -29826-3 0  9990,2 52112  53.2130  11.0000 0001726  57.1735  10.1073 15.08851044  1305,6917.847,95.437,540.906,538.518,0.0
52112.0,STARLINK-3734,PAYLOAD,2022-06-30 22:00:00,15.0882608,0.000187,53.2128,9.505,51.1447,27.7448,0.0019593,0.0003102,0.0,0 STARLINK-3734,1 52112U 22029AA  22181.91667824  .00031020  00000-0  19593-2 0  9998,2 52112  53.2128   9.5050 0001870  51.1447  27.7448 15.08826080  1305,6917.9230000000025,95.438,541.082,538.494,0.0
52112.0,STARLINK-3734,PAYLOAD,2022-07-01 14:00:01,15.08861781,0.0001773,53.2146,6.5103,58.1342,43.9498,-0.00068965,-0.00011254,0.0,0 STARLINK-3734,1 52112U 22029AA  22182.58334491 -.00011254  00000-0 -68965-3 0  9990,2 52112  53.2146   6.5103 0001773  58.1342  43.9498 15.08861781  1306,6917.814,95.436,540.905,538.452,0.0
52112.0,STARLINK-3734,PAYLOAD,2022-07-01 22:00:00,15.08844926,0.0001869,53.2147,5.0154,50.548,63.1565,-0.00033739,-5.655e-05,0.0,0 STARLINK-3734,1 52112U 22029AA  22182.91667824 -.00005655  00000-0 -33739-3 0  9995,2 52112  53.2147   5.0154 0001869  50.5480  63.1565 15.08844926  1303,6917.865,95.437,541.023,538.437,0.0
52112.0,STARLINK-3734,PAYLOAD,2022-07-02 14:00:01,15.08848052,0.0001745,53.2149,2.0208,56.0045,80.8835,-0.0008496,-0.00013787,0.0,0 STARLINK-3734,1 52112U 22029AA  22183.58334491 -.00013787  00000-0 -84960-3 0  9997,2 52112  53.2149   2.0208 0001745  56.0045  80.8835 15.08848052  1303,6917.856,95.437,540.928,538.514,0.0
52112.0,STARLINK-3734,PAYLOAD,2022-07-02 22:00:00,15.08821359,0.0001876,53.2149,0.5259,48.8053,99.694,0.0032873,0.00052392,0.0,0 STARLINK-3734,1 52112U 22029AA  22183.91667824  .00052392  00000-0  32873-2 0  9991,2 52112  53.2149   0.5259 0001876  48.8053  99.6940 15.08821359  1301,6917.937,95.439,541.1,538.505,0.0
52112.0,STARLINK-3734,PAYLOAD,2022-07-03 14:00:01,15.08864989,0.0001869,53.2154,357.5314,56.5288,115.1804,-0.0027284,-0.00043479,0.0,0 STARLINK-3734,1 52112U 22029AA  22184.58334491 -.00043479  00000-0 -27284-2 0  9994,2 52112  53.2154 357.5314 0001869  56.5288 115.1804 15.08864989 17713,6917.804,95.436,540.962,538.376,0.0
52112.0,STARLINK-3734,PAYLOAD,2022-07-03 22:00:00,15.08808508,0.0001974,53.2154,356.0365,49.9145,133.4055,0.0012261,0.00019263,0.0,0 STARLINK-3734,1 52112U 22029AA  22184.91667824  .00019263  00000-0  12261-2 0  9991,2 52112  53.2154 356.0365 0001974  49.9145 133.4055 15.08808508  1302,6917.977,95.44,541.207,538.476,0.0
52112.0,STARLINK-3734,PAYLOAD,2022-07-04 14:00:01,15.08833546,0.0001855,53.2159,353.0425,55.9628,150.4808,-0.0012087,-0.0001947,0.0,0 STARLINK-3734,1 52112U 22029AA  22185.58334491 -.00019470  00000-0 -12087-2 0  9994,2 52112  53.2159 353.0425 0001855  55.9628 150.4808 15.08833546 17865,6917.9,95.438,541.048,538.482,0.0
